{"fetched_at":"2026-07-22T07:09:47.414Z","source":"https://celestrak.org/NORAD/elements/gp.php?NAME=HULIANWANG&FORMAT=JSON","constellation":"guowang","records":[{"OBJECT_NAME":"HULIANWANG DIGUI-60","OBJECT_ID":"2025-174C","EPOCH":"2026-07-21T13:56:01.295520","CLASSIFICATION_TYPE":"U","MEAN_MOTION":13.24407284,"ECCENTRICITY":0.00018947,"INCLINATION":86.4932,"RA_OF_ASC_NODE":240.387,"ARG_OF_PERICENTER":102.7279,"MEAN_ANOMALY":257.4067,"EPHEMERIS_TYPE":0,"NORAD_CAT_ID":65166,"ELEMENT_SET_NO":999,"REV_AT_EPOCH":4534,"BSTAR":0.000054413976,"MEAN_MOTION_DOT":3.8e-7,"MEAN_MOTION_DDOT":0},{"OBJECT_NAME":"HULIANWANG DIGUI-61","OBJECT_ID":"2025-174D","EPOCH":"2026-07-21T14:06:55.397952","CLASSIFICATION_TYPE":"U","MEAN_MOTION":13.24407917,"ECCENTRICITY":0.00017084,"INCLINATION":86.494,"RA_OF_ASC_NODE":240.4184,"ARG_OF_PERICENTER":102.6187,"MEAN_ANOMALY":257.5138,"EPHEMERIS_TYPE":0,"NORAD_CAT_ID":65167,"ELEMENT_SET_NO":999,"REV_AT_EPOCH":4534,"BSTAR":0.000074972436,"MEAN_MOTION_DOT":4.7e-7,"MEAN_MOTION_DDOT":0},{"OBJECT_NAME":"HULIANWANG DIGUI-62","OBJECT_ID":"2025-174E","EPOCH":"2026-07-21T14:17:37.322304","CLASSIFICATION_TYPE":"U","MEAN_MOTION":13.24409543,"ECCENTRICITY":0.00018249,"INCLINATION":86.4882,"RA_OF_ASC_NODE":240.2273,"ARG_OF_PERICENTER":105.7051,"MEAN_ANOMALY":254.4285,"EPHEMERIS_TYPE":0,"NORAD_CAT_ID":65168,"ELEMENT_SET_NO":999,"REV_AT_EPOCH":4534,"BSTAR":0.000090728332,"MEAN_MOTION_DOT":5.4e-7,"MEAN_MOTION_DDOT":0},{"OBJECT_NAME":"HULIANWANG DIGUI-63","OBJECT_ID":"2025-174F","EPOCH":"2026-07-21T14:28:25.993632","CLASSIFICATION_TYPE":"U","MEAN_MOTION":13.24403881,"ECCENTRICITY":0.00017202,"INCLINATION":86.4935,"RA_OF_ASC_NODE":240.4043,"ARG_OF_PERICENTER":106.5235,"MEAN_ANOMALY":253.6088,"EPHEMERIS_TYPE":0,"NORAD_CAT_ID":65169,"ELEMENT_SET_NO":999,"REV_AT_EPOCH":4534,"BSTAR":0.000086325358,"MEAN_MOTION_DOT":5.2e-7,"MEAN_MOTION_DDOT":0},{"OBJECT_NAME":"HULIANWANG DIGUI-64","OBJECT_ID":"2025-174G","EPOCH":"2026-07-21T14:39:31.048992","CLASSIFICATION_TYPE":"U","MEAN_MOTION":13.24407798,"ECCENTRICITY":0.00018881,"INCLINATION":86.4894,"RA_OF_ASC_NODE":240.2722,"ARG_OF_PERICENTER":104.7149,"MEAN_ANOMALY":255.4195,"EPHEMERIS_TYPE":0,"NORAD_CAT_ID":65170,"ELEMENT_SET_NO":999,"REV_AT_EPOCH":4534,"BSTAR":0.000027454217,"MEAN_MOTION_DOT":2.6e-7,"MEAN_MOTION_DDOT":0},{"OBJECT_NAME":"HULIANWANG DIGUI-65","OBJECT_ID":"2025-174H","EPOCH":"2026-07-21T15:01:12.067968","CLASSIFICATION_TYPE":"U","MEAN_MOTION":13.2440781,"ECCENTRICITY":0.00017469,"INCLINATION":86.4857,"RA_OF_ASC_NODE":240.1579,"ARG_OF_PERICENTER":101.028,"MEAN_ANOMALY":259.1051,"EPHEMERIS_TYPE":0,"NORAD_CAT_ID":65171,"ELEMENT_SET_NO":999,"REV_AT_EPOCH":4534,"BSTAR":-0.000016367717,"MEAN_MOTION_DOT":8e-8,"MEAN_MOTION_DDOT":0},{"OBJECT_NAME":"HULIANWANG DIGUI-66","OBJECT_ID":"2025-174J","EPOCH":"2026-07-21T14:50:23.161632","CLASSIFICATION_TYPE":"U","MEAN_MOTION":13.24407461,"ECCENTRICITY":0.00018917,"INCLINATION":86.4892,"RA_OF_ASC_NODE":240.2735,"ARG_OF_PERICENTER":102.7582,"MEAN_ANOMALY":257.3764,"EPHEMERIS_TYPE":0,"NORAD_CAT_ID":65172,"ELEMENT_SET_NO":999,"REV_AT_EPOCH":4534,"BSTAR":-0.000003669554,"MEAN_MOTION_DOT":1.3e-7,"MEAN_MOTION_DDOT":0},{"OBJECT_NAME":"HULIANWANG DIGUI-67","OBJECT_ID":"2025-174K","EPOCH":"2026-07-21T13:23:17.781216","CLASSIFICATION_TYPE":"U","MEAN_MOTION":13.2440898,"ECCENTRICITY":0.00018521,"INCLINATION":86.4904,"RA_OF_ASC_NODE":240.343,"ARG_OF_PERICENTER":101.2151,"MEAN_ANOMALY":258.9191,"EPHEMERIS_TYPE":0,"NORAD_CAT_ID":65173,"ELEMENT_SET_NO":999,"REV_AT_EPOCH":4530,"BSTAR":-0.000003483246,"MEAN_MOTION_DOT":1.3e-7,"MEAN_MOTION_DDOT":0},{"OBJECT_NAME":"HULIANWANG DIGUI-68","OBJECT_ID":"2025-178A","EPOCH":"2026-07-21T13:55:44.813856","CLASSIFICATION_TYPE":"U","MEAN_MOTION":13.24411376,"ECCENTRICITY":0.00019669,"INCLINATION":86.4996,"RA_OF_ASC_NODE":1.9129,"ARG_OF_PERICENTER":91.3856,"MEAN_ANOMALY":268.7504,"EPHEMERIS_TYPE":0,"NORAD_CAT_ID":65228,"ELEMENT_SET_NO":999,"REV_AT_EPOCH":4486,"BSTAR":-0.000001401545,"MEAN_MOTION_DOT":1.4e-7,"MEAN_MOTION_DDOT":0},{"OBJECT_NAME":"HULIANWANG DIGUI-69","OBJECT_ID":"2025-178B","EPOCH":"2026-07-21T13:45:01.171008","CLASSIFICATION_TYPE":"U","MEAN_MOTION":13.24412798,"ECCENTRICITY":0.00018906,"INCLINATION":86.5017,"RA_OF_ASC_NODE":1.977,"ARG_OF_PERICENTER":92.3564,"MEAN_ANOMALY":267.7786,"EPHEMERIS_TYPE":0,"NORAD_CAT_ID":65229,"ELEMENT_SET_NO":999,"REV_AT_EPOCH":4486,"BSTAR":0.00001282611,"MEAN_MOTION_DOT":2e-7,"MEAN_MOTION_DDOT":0},{"OBJECT_NAME":"HULIANWANG DIGUI-70","OBJECT_ID":"2025-178C","EPOCH":"2026-07-21T15:22:55.517376","CLASSIFICATION_TYPE":"U","MEAN_MOTION":13.24411958,"ECCENTRICITY":0.00019498,"INCLINATION":86.4955,"RA_OF_ASC_NODE":1.7413,"ARG_OF_PERICENTER":89.8654,"MEAN_ANOMALY":270.2703,"EPHEMERIS_TYPE":0,"NORAD_CAT_ID":65230,"ELEMENT_SET_NO":999,"REV_AT_EPOCH":4487,"BSTAR":0.000074773629,"MEAN_MOTION_DOT":4.7e-7,"MEAN_MOTION_DDOT":0},{"OBJECT_NAME":"HULIANWANG DIGUI-71","OBJECT_ID":"2025-178D","EPOCH":"2026-07-21T15:12:04.342176","CLASSIFICATION_TYPE":"U","MEAN_MOTION":13.24411632,"ECCENTRICITY":0.00019393,"INCLINATION":86.5014,"RA_OF_ASC_NODE":1.9363,"ARG_OF_PERICENTER":90.1844,"MEAN_ANOMALY":269.9513,"EPHEMERIS_TYPE":0,"NORAD_CAT_ID":65231,"ELEMENT_SET_NO":999,"REV_AT_EPOCH":4487,"BSTAR":0.000090571254,"MEAN_MOTION_DOT":5.4e-7,"MEAN_MOTION_DDOT":0},{"OBJECT_NAME":"HULIANWANG DIGUI-72","OBJECT_ID":"2025-178E","EPOCH":"2026-07-21T15:01:11.873568","CLASSIFICATION_TYPE":"U","MEAN_MOTION":13.24411083,"ECCENTRICITY":0.0001946,"INCLINATION":86.4997,"RA_OF_ASC_NODE":1.8743,"ARG_OF_PERICENTER":90.6925,"MEAN_ANOMALY":269.4432,"EPHEMERIS_TYPE":0,"NORAD_CAT_ID":65232,"ELEMENT_SET_NO":999,"REV_AT_EPOCH":4487,"BSTAR":0.000090893033,"MEAN_MOTION_DOT":5.4e-7,"MEAN_MOTION_DDOT":0},{"OBJECT_NAME":"HULIANWANG DIGUI-73","OBJECT_ID":"2025-187A","EPOCH":"2026-07-21T15:28:25.835808","CLASSIFICATION_TYPE":"U","MEAN_MOTION":13.29323717,"ECCENTRICITY":0.00000654,"INCLINATION":50.0056,"RA_OF_ASC_NODE":82.3003,"ARG_OF_PERICENTER":13.5862,"MEAN_ANOMALY":346.5011,"EPHEMERIS_TYPE":0,"NORAD_CAT_ID":65305,"ELEMENT_SET_NO":999,"REV_AT_EPOCH":4428,"BSTAR":0.000038036469,"MEAN_MOTION_DOT":-0.00000106,"MEAN_MOTION_DDOT":0},{"OBJECT_NAME":"HULIANWANG DIGUI-74","OBJECT_ID":"2025-187B","EPOCH":"2026-07-21T15:04:31.121472","CLASSIFICATION_TYPE":"U","MEAN_MOTION":13.29321855,"ECCENTRICITY":0.0000082,"INCLINATION":50.0098,"RA_OF_ASC_NODE":82.3238,"ARG_OF_PERICENTER":359.9511,"MEAN_ANOMALY":0.1362,"EPHEMERIS_TYPE":0,"NORAD_CAT_ID":65306,"ELEMENT_SET_NO":999,"REV_AT_EPOCH":4428,"BSTAR":0.000046305531,"MEAN_MOTION_DOT":-0.00000103,"MEAN_MOTION_DDOT":0},{"OBJECT_NAME":"HULIANWANG DIGUI-75","OBJECT_ID":"2025-187C","EPOCH":"2026-07-21T14:40:28.628544","CLASSIFICATION_TYPE":"U","MEAN_MOTION":13.29323046,"ECCENTRICITY":0.00000654,"INCLINATION":50.009,"RA_OF_ASC_NODE":82.217,"ARG_OF_PERICENTER":19.0103,"MEAN_ANOMALY":341.0772,"EPHEMERIS_TYPE":0,"NORAD_CAT_ID":65307,"ELEMENT_SET_NO":999,"REV_AT_EPOCH":4428,"BSTAR":0.000023327514,"MEAN_MOTION_DOT":-0.00000113,"MEAN_MOTION_DDOT":0}]}
