{"epoch":1784710044,"count":18256,"objects":[{"id":"65166","name":"HULIANWANG DIGUI-60","type":"PAYLOAD","l1":"1 65166U 25174C   26202.58057055  .00000038  00000-0  54414-4 0  9993","l2":"2 65166  86.4932 240.3870 0001895 102.7279 257.4067 13.24407284 45345"},{"id":"65167","name":"HULIANWANG DIGUI-61","type":"PAYLOAD","l1":"1 65167U 25174D   26202.58814118  .00000047  00000-0  74972-4 0  9996","l2":"2 65167  86.4940 240.4184 0001708 102.6187 257.5138 13.24407917 45347"},{"id":"65168","name":"HULIANWANG DIGUI-62","type":"PAYLOAD","l1":"1 65168U 25174E   26202.59557086  .00000054  00000-0  90728-4 0  9991","l2":"2 65168  86.4882 240.2273 0001825 105.7051 254.4285 13.24409543 45340"},{"id":"65169","name":"HULIANWANG DIGUI-63","type":"PAYLOAD","l1":"1 65169U 25174F   26202.60307863  .00000052  00000-0  86325-4 0  9996","l2":"2 65169  86.4935 240.4043 0001720 106.5235 253.6088 13.24403881 45345"},{"id":"65170","name":"HULIANWANG DIGUI-64","type":"PAYLOAD","l1":"1 65170U 25174G   26202.61077603  .00000026  00000-0  27454-4 0  9994","l2":"2 65170  86.4894 240.2722 0001888 104.7149 255.4195 13.24407798 45342"},{"id":"65171","name":"HULIANWANG DIGUI-65","type":"PAYLOAD","l1":"1 65171U 25174H   26202.62583412  .00000008  00000-0 -16368-4 0  9999","l2":"2 65171  86.4857 240.1579 0001747 101.0280 259.1051 13.24407810 45348"},{"id":"65172","name":"HULIANWANG DIGUI-66","type":"PAYLOAD","l1":"1 65172U 25174J   26202.61832363  .00000013  00000-0 -36696-5 0  9994","l2":"2 65172  86.4892 240.2735 0001892 102.7582 257.3764 13.24407461 45340"},{"id":"65173","name":"HULIANWANG DIGUI-67","type":"PAYLOAD","l1":"1 65173U 25174K   26202.55784469  .00000013  00000-0 -34832-5 0  9991","l2":"2 65173  86.4904 240.3430 0001852 101.2151 258.9191 13.24408980 45304"},{"id":"65228","name":"HULIANWANG DIGUI-68","type":"PAYLOAD","l1":"1 65228U 25178A   26202.58037979  .00000014  00000-0 -14015-5 0  9998","l2":"2 65228  86.4996   1.9129 0001967  91.3856 268.7504 13.24411376 44860"},{"id":"65229","name":"HULIANWANG DIGUI-69","type":"PAYLOAD","l1":"1 65229U 25178B   26202.57293022  .00000020  00000-0  12826-4 0  9994","l2":"2 65229  86.5017   1.9770 0001891  92.3564 267.7786 13.24412798 44861"},{"id":"65230","name":"HULIANWANG DIGUI-70","type":"PAYLOAD","l1":"1 65230U 25178C   26202.64092034  .00000047  00000-0  74774-4 0  9993","l2":"2 65230  86.4955   1.7413 0001950  89.8654 270.2703 13.24411958 44878"},{"id":"65231","name":"HULIANWANG DIGUI-71","type":"PAYLOAD","l1":"1 65231U 25178D   26202.63338359  .00000054  00000-0  90571-4 0  9997","l2":"2 65231  86.5014   1.9363 0001939  90.1844 269.9513 13.24411632 44878"},{"id":"65232","name":"HULIANWANG DIGUI-72","type":"PAYLOAD","l1":"1 65232U 25178E   26202.62583187  .00000054  00000-0  90893-4 0  9995","l2":"2 65232  86.4997   1.8743 0001946  90.6925 269.4432 13.24411083 44877"},{"id":"65305","name":"HULIANWANG DIGUI-73","type":"PAYLOAD","l1":"1 65305U 25187A   26202.64474347 -.00000106  00000-0  38036-4 0  9995","l2":"2 65305  50.0056  82.3003 0000065  13.5862 346.5011 13.29323717 44285"},{"id":"65306","name":"HULIANWANG DIGUI-74","type":"PAYLOAD","l1":"1 65306U 25187B   26202.62813798 -.00000103  00000-0  46306-4 0  9997","l2":"2 65306  50.0098  82.3238 0000082 359.9511   0.1362 13.29321855 44282"},{"id":"65307","name":"HULIANWANG DIGUI-75","type":"PAYLOAD","l1":"1 65307U 25187C   26202.61144246 -.00000113  00000-0  23328-4 0  9992","l2":"2 65307  50.0090  82.2170 0000065  19.0103 341.0772 13.29323046 44287"}]}